{"type": "FeatureCollection", "features": [ {"type": "Feature", "properties": {"norad_id": 35480, "name": "IRIDIUM 33 DEB", "group": "iridium-33-debris", "lat": -83.14911008675391, "lon": -10.63045388901426, "alt_km": 744.6369975773978, "timestamp": "2025-12-20T20:38:44.827050+00:00", "meta": {"OBJECT_NAME": "IRIDIUM 33 DEB", "OBJECT_ID": "1997-051QA", "EPOCH": "2025-12-15T08:30:57.118464", "MEAN_MOTION": 14.49774703, "ECCENTRICITY": 0.00160032, "INCLINATION": 86.3571, "RA_OF_ASC_NODE": 23.7786, "ARG_OF_PERICENTER": 97.0457, "MEAN_ANOMALY": 263.2568, "EPHEMERIS_TYPE": 0, "CLASSIFICATION_TYPE": "U", "NORAD_CAT_ID": 35480, "ELEMENT_SET_NO": 999, "REV_AT_EPOCH": 87069, "BSTAR": 0.00045738518, "MEAN_MOTION_DOT": 1.785e-05, "MEAN_MOTION_DDOT": 0}, "tle": {"line1": "1 35480U 97051QA  25349.35482776  .00001785  00000+0  45739-3 0  9998", "line2": "2 35480  86.3571  23.7786 0016003  97.0457 263.2568 14.49774703870695"}}, "geometry": {"type": "Point", "coordinates": [-10.63045388901426, -83.14911008675391]}}, {"type": "Feature", "properties": {"norad_id": 35484, "name": "IRIDIUM 33 DEB", "group": "iridium-33-debris", "lat": 73.98273102825394, "lon": 1.7580598113162735, "alt_km": 547.3418577976818, "timestamp": "2025-12-20T20:38:44.827066+00:00", "meta": {"OBJECT_NAME": "IRIDIUM 33 DEB", "OBJECT_ID": "1997-051QE", "EPOCH": "2025-12-20T05:53:50.536320", "MEAN_MOTION": 14.99070378, "ECCENTRICITY": 0.0024384, "INCLINATION": 86.3597, "RA_OF_ASC_NODE": 349.2326, "ARG_OF_PERICENTER": 101.5315, "MEAN_ANOMALY": 258.8656, "EPHEMERIS_TYPE": 0, "CLASSIFICATION_TYPE": "U", "NORAD_CAT_ID": 35484, "ELEMENT_SET_NO": 999, "REV_AT_EPOCH": 62128, "BSTAR": 0.0016692, "MEAN_MOTION_DOT": 0.00020443, "MEAN_MOTION_DDOT": 0}, "tle": {"line1": "1 35484U 97051QE  25354.24572380  .00020443  00000+0  16692-2 0  9994", "line2": "2 35484  86.3597 349.2326 0024384 101.5315 258.8656 14.99070378621287"}}, "geometry": {"type": "Point", "coordinates": [1.7580598113162735, 73.98273102825394]}}, {"type": "Feature", "properties": {"norad_id": 35488, "name": "IRIDIUM 33 DEB", "group": "iridium-33-debris", "lat": 83.76584455791519, "lon": -26.81692066474206, "alt_km": 604.3654005525777, "timestamp": "2025-12-20T20:38:44.827082+00:00", "meta": {"OBJECT_NAME": "IRIDIUM 33 DEB", "OBJECT_ID": "1997-051QJ", "EPOCH": "2025-12-18T06:44:16.731744", "MEAN_MOTION": 14.83196659, "ECCENTRICITY": 0.00291507, "INCLINATION": 86.3243, "RA_OF_ASC_NODE": 298.3231, "ARG_OF_PERICENTER": 24.8223, "MEAN_ANOMALY": 335.4395, "EPHEMERIS_TYPE": 0, "CLASSIFICATION_TYPE": "U", "NORAD_CAT_ID": 35488, "ELEMENT_SET_NO": 999, "REV_AT_EPOCH": 88348, "BSTAR": 0.0014098178, "MEAN_MOTION_DOT": 0.00011627, "MEAN_MOTION_DDOT": 0}, "tle": {"line1": "1 35488U 97051QJ  25352.28074921  .00011627  00000+0  14098-2 0  9990", "line2": "2 35488  86.3243 298.3231 0029150  24.8223 335.4395 14.83196659883487"}}, "geometry": {"type": "Point", "coordinates": [-26.81692066474206, 83.76584455791519]}}, {"type": "Feature", "properties": {"norad_id": 35616, "name": "IRIDIUM 33 DEB", "group": "iridium-33-debris", "lat": -27.657219216414347, "lon": 163.97269657580583, "alt_km": 626.4912022025592, "timestamp": "2025-12-20T20:38:44.827099+00:00", "meta": {"OBJECT_NAME": "IRIDIUM 33 DEB", "OBJECT_ID": "1997-051QN", "EPOCH": "2025-12-19T06:26:26.767968", "MEAN_MOTION": 14.81969913, "ECCENTRICITY": 0.0011079, "INCLINATION": 86.3543, "RA_OF_ASC_NODE": 342.7845, "ARG_OF_PERICENTER": 141.4908, "MEAN_ANOMALY": 218.7107, "EPHEMERIS_TYPE": 0, "CLASSIFICATION_TYPE": "U", "NORAD_CAT_ID": 35616, "ELEMENT_SET_NO": 999, "REV_AT_EPOCH": 87671, "BSTAR": 0.0011657, "MEAN_MOTION_DOT": 9.278e-05, "MEAN_MOTION_DDOT": 0}, "tle": {"line1": "1 35616U 97051QN  25353.26836537  .00009278  00000+0  11657-2 0  9998", "line2": "2 35616  86.3543 342.7845 0011079 141.4908 218.7107 14.81969913876716"}}, "geometry": {"type": "Point", "coordinates": [163.97269657580583, -27.657219216414347]}}, {"type": "Feature", "properties": {"norad_id": 35618, "name": "IRIDIUM 33 DEB", "group": "iridium-33-debris", "lat": -9.38293899409911, "lon": 170.56262006814856, "alt_km": 741.9969366185496, "timestamp": "2025-12-20T20:38:44.827116+00:00", "meta": {"OBJECT_NAME": "IRIDIUM 33 DEB", "OBJECT_ID": "1997-051QQ", "EPOCH": "2025-12-13T19:06:39.662496", "MEAN_MOTION": 14.52305973, "ECCENTRICITY": 0.00288889, "INCLINATION": 86.3427, "RA_OF_ASC_NODE": 353.0427, "ARG_OF_PERICENTER": 17.6332, "MEAN_ANOMALY": 342.5869, "EPHEMERIS_TYPE": 0, "CLASSIFICATION_TYPE": "U", "NORAD_CAT_ID": 35618, "ELEMENT_SET_NO": 999, "REV_AT_EPOCH": 65409, "BSTAR": 0.0005678553, "MEAN_MOTION_DOT": 2.341e-05, "MEAN_MOTION_DDOT": 0}, "tle": {"line1": "1 35618U 97051QQ  25347.79629239  .00002341  00000+0  56786-3 0  9997", "line2": "2 35618  86.3427 353.0427 0028888  17.6332 342.5869 14.52305973654095"}}, "geometry": {"type": "Point", "coordinates": [170.56262006814856, -9.38293899409911]}}, {"type": "Feature", "properties": {"norad_id": 35620, "name": "IRIDIUM 33 DEB", "group": "iridium-33-debris", "lat": 61.69571099896154, "lon": 27.29879452064791, "alt_km": 797.6090332947742, "timestamp": "2025-12-20T20:38:44.827135+00:00", "meta": {"OBJECT_NAME": "IRIDIUM 33 DEB", "OBJECT_ID": "1997-051QS", "EPOCH": "2025-12-18T07:58:30.597312", "MEAN_MOTION": 14.38231155, "ECCENTRICITY": 0.01396071, "INCLINATION": 86.3909, "RA_OF_ASC_NODE": 215.0948, "ARG_OF_PERICENTER": 240.37, "MEAN_ANOMALY": 118.3533, "EPHEMERIS_TYPE": 0, "CLASSIFICATION_TYPE": "U", "NORAD_CAT_ID": 35620, "ELEMENT_SET_NO": 999, "REV_AT_EPOCH": 60046, "BSTAR": 0.0042608437, "MEAN_MOTION_DOT": 0.00014532, "MEAN_MOTION_DDOT": 0}, "tle": {"line1": "1 35620U 97051QS  25352.33229858  .00014532  00000+0  42608-2 0  9991", "line2": "2 35620  86.3909 215.0948 0139607 240.3700 118.3533 14.38231155600467"}}, "geometry": {"type": "Point", "coordinates": [27.29879452064791, 61.69571099896154]}}, {"type": "Feature", "properties": {"norad_id": 35622, "name": "IRIDIUM 33 DEB", "group": "iridium-33-debris", "lat": -0.28886226256327485, "lon": -100.41954779867696, "alt_km": 551.552745349416, "timestamp": "2025-12-20T20:38:44.827148+00:00", "meta": {"OBJECT_NAME": "IRIDIUM 33 DEB", "OBJECT_ID": "1997-051QU", "EPOCH": "2025-12-19T11:54:56.844000", "MEAN_MOTION": 15.05406521, "ECCENTRICITY": 0.0004384, "INCLINATION": 86.2024, "RA_OF_ASC_NODE": 260.2722, "ARG_OF_PERICENTER": 306.062, "MEAN_ANOMALY": 227.6567, "EPHEMERIS_TYPE": 0, "CLASSIFICATION_TYPE": "U", "NORAD_CAT_ID": 35622, "ELEMENT_SET_NO": 999, "REV_AT_EPOCH": 87461, "BSTAR": 0.0026207, "MEAN_MOTION_DOT": 0.00037763, "MEAN_MOTION_DDOT": 0}, "tle": {"line1": "1 35622U 97051QU  25353.49649125  .00037763  00000+0  26207-2 0  9992", "line2": "2 35622  86.2024 260.2722 0004384 306.0620 227.6567 15.05406521874619"}}, "geometry": {"type": "Point", "coordinates": [-100.41954779867696, -0.28886226256327485]}}, {"type": "Feature", "properties": {"norad_id": 35628, "name": "IRIDIUM 33 DEB", "group": "iridium-33-debris", "lat": 6.109159319716691, "lon": -174.9375343488386, "alt_km": 675.8149762394596, "timestamp": "2025-12-20T20:38:44.827159+00:00", "meta": {"OBJECT_NAME": "IRIDIUM 33 DEB", "OBJECT_ID": "1997-051RA", "EPOCH": "2025-12-20T06:45:55.793664", "MEAN_MOTION": 14.67680924, "ECCENTRICITY": 0.00096368, "INCLINATION": 86.3562, "RA_OF_ASC_NODE": 5.7112, "ARG_OF_PERICENTER": 314.2717, "MEAN_ANOMALY": 45.7705, "EPHEMERIS_TYPE": 0, "CLASSIFICATION_TYPE": "U", "NORAD_CAT_ID": 35628, "ELEMENT_SET_NO": 999, "REV_AT_EPOCH": 86557, "BSTAR": 0.00085133469, "MEAN_MOTION_DOT": 4.868e-05, "MEAN_MOTION_DDOT": 0}, "tle": {"line1": "1 35628U 97051RA  25354.28189576  .00004868  00000+0  85133-3 0  9999", "line2": "2 35628  86.3562   5.7112 0009636 314.2717  45.7705 14.67680924865577"}}, "geometry": {"type": "Point", "coordinates": [-174.9375343488386, 6.109159319716691]}}, {"type": "Feature", "properties": {"norad_id": 35631, "name": "IRIDIUM 33 DEB", "group": "iridium-33-debris", "lat": -17.1200932294257, "lon": -161.39945424302306, "alt_km": 742.5460884396907, "timestamp": "2025-12-20T20:38:44.827169+00:00", "meta": {"OBJECT_NAME": "IRIDIUM 33 DEB", "OBJECT_ID": "1997-051RD", "EPOCH": "2025-12-20T01:46:23.422080", "MEAN_MOTION": 14.47329545, "ECCENTRICITY": 0.00192479, "INCLINATION": 86.3662, "RA_OF_ASC_NODE": 17.8175, "ARG_OF_PERICENTER": 96.1931, "MEAN_ANOMALY": 326.0143, "EPHEMERIS_TYPE": 0, "CLASSIFICATION_TYPE": "U", "NORAD_CAT_ID": 35631, "ELEMENT_SET_NO": 999, "REV_AT_EPOCH": 87303, "BSTAR": 0.00024996785, "MEAN_MOTION_DOT": 9.37e-06, "MEAN_MOTION_DDOT": 0}, "tle": {"line1": "1 35631U 97051RD  25354.07388220  .00000937  00000+0  24997-3 0  9991", "line2": "2 35631  86.3662  17.8175 0019247  96.1931 326.0143 14.47329545873036"}}, "geometry": {"type": "Point", "coordinates": [-161.39945424302306, -17.1200932294257]}}, {"type": "Feature", "properties": {"norad_id": 35680, "name": "IRIDIUM 33 DEB", "group": "iridium-33-debris", "lat": 61.96001177356939, "lon": -169.42617111053622, "alt_km": 891.4142084139694, "timestamp": "2025-12-20T20:38:44.827179+00:00", "meta": {"OBJECT_NAME": "IRIDIUM 33 DEB", "OBJECT_ID": "1997-051RJ", "EPOCH": "2025-12-17T20:16:19.922592", "MEAN_MOTION": 14.21000805, "ECCENTRICITY": 0.01505036, "INCLINATION": 86.1025, "RA_OF_ASC_NODE": 19.2625, "ARG_OF_PERICENTER": 262.1515, "MEAN_ANOMALY": 279.7609, "EPHEMERIS_TYPE": 0, "CLASSIFICATION_TYPE": "U", "NORAD_CAT_ID": 35680, "ELEMENT_SET_NO": 999, "REV_AT_EPOCH": 60773, "BSTAR": 0.0028027984, "MEAN_MOTION_DOT": 6.829e-05, "MEAN_MOTION_DDOT": 0}, "tle": {"line1": "1 35680U 97051RJ  25351.84467503  .00006829  00000+0  28028-2 0  9993", "line2": "2 35680  86.1025  19.2625 0150503 262.1515 279.7609 14.21000805607731"}}, "geometry": {"type": "Point", "coordinates": [-169.42617111053622, 61.96001177356939]}}]}